{
  "0000": {
    "postcode": "0230000",
    "prefecture": "岩手県",
    "prefecture_kana": "イワテケン",
    "prefecture_code": 3,
    "city": "奥州市",
    "city_kana": "オウシュウシ",
    "town": "",
    "town_kana": "",
    "street": null,
    "office_name": null,
    "office_name_kana": null
  },
  "0001": {
    "postcode": "0230001",
    "prefecture": "岩手県",
    "prefecture_kana": "イワテケン",
    "prefecture_code": 3,
    "city": "奥州市",
    "city_kana": "オウシュウシ",
    "town": "水沢区卸町",
    "town_kana": "ミズサワクオロシマチ",
    "street": null,
    "office_name": null,
    "office_name_kana": null
  },
  "0002": {
    "postcode": "0230002",
    "prefecture": "岩手県",
    "prefecture_kana": "イワテケン",
    "prefecture_code": 3,
    "city": "奥州市",
    "city_kana": "オウシュウシ",
    "town": "水沢区水沢工業団地",
    "town_kana": "ミズサワクミズサワコウギョウダンチ",
    "street": null,
    "office_name": null,
    "office_name_kana": null
  },
  "0003": {
    "postcode": "0230003",
    "prefecture": "岩手県",
    "prefecture_kana": "イワテケン",
    "prefecture_code": 3,
    "city": "奥州市",
    "city_kana": "オウシュウシ",
    "town": "水沢区佐倉河",
    "town_kana": "ミズサワクサクラカワ",
    "street": null,
    "office_name": null,
    "office_name_kana": null
  },
  "0011": {
    "postcode": "0230011",
    "prefecture": "岩手県",
    "prefecture_kana": "イワテケン",
    "prefecture_code": 3,
    "city": "奥州市",
    "city_kana": "オウシュウシ",
    "town": "水沢区稲荷田",
    "town_kana": "ミズサワクイナリダ",
    "street": null,
    "office_name": null,
    "office_name_kana": null
  },
  "0012": {
    "postcode": "0230012",
    "prefecture": "岩手県",
    "prefecture_kana": "イワテケン",
    "prefecture_code": 3,
    "city": "奥州市",
    "city_kana": "オウシュウシ",
    "town": "水沢区斉勝田",
    "town_kana": "ミズサワクサイカツダ",
    "street": null,
    "office_name": null,
    "office_name_kana": null
  },
  "0013": {
    "postcode": "0230013",
    "prefecture": "岩手県",
    "prefecture_kana": "イワテケン",
    "prefecture_code": 3,
    "city": "奥州市",
    "city_kana": "オウシュウシ",
    "town": "水沢区一本柳",
    "town_kana": "ミズサワクイッポンヤナギ",
    "street": null,
    "office_name": null,
    "office_name_kana": null
  },
  "0014": {
    "postcode": "0230014",
    "prefecture": "岩手県",
    "prefecture_kana": "イワテケン",
    "prefecture_code": 3,
    "city": "奥州市",
    "city_kana": "オウシュウシ",
    "town": "水沢区地蔵田",
    "town_kana": "ミズサワクジゾウデン",
    "street": null,
    "office_name": null,
    "office_name_kana": null
  },
  "0015": {
    "postcode": "0230015",
    "prefecture": "岩手県",
    "prefecture_kana": "イワテケン",
    "prefecture_code": 3,
    "city": "奥州市",
    "city_kana": "オウシュウシ",
    "town": "水沢区五千刈",
    "town_kana": "ミズサワクゴセンガリ",
    "street": null,
    "office_name": null,
    "office_name_kana": null
  },
  "0016": {
    "postcode": "0230016",
    "prefecture": "岩手県",
    "prefecture_kana": "イワテケン",
    "prefecture_code": 3,
    "city": "奥州市",
    "city_kana": "オウシュウシ",
    "town": "水沢区平沢",
    "town_kana": "ミズサワクヒラサワ",
    "street": null,
    "office_name": null,
    "office_name_kana": null
  },
  "0017": {
    "postcode": "0230017",
    "prefecture": "岩手県",
    "prefecture_kana": "イワテケン",
    "prefecture_code": 3,
    "city": "奥州市",
    "city_kana": "オウシュウシ",
    "town": "水沢区渋田",
    "town_kana": "ミズサワクシブタ",
    "street": null,
    "office_name": null,
    "office_name_kana": null
  },
  "0018": {
    "postcode": "0230018",
    "prefecture": "岩手県",
    "prefecture_kana": "イワテケン",
    "prefecture_code": 3,
    "city": "奥州市",
    "city_kana": "オウシュウシ",
    "town": "水沢区小中",
    "town_kana": "ミズサワクコナカ",
    "street": null,
    "office_name": null,
    "office_name_kana": null
  },
  "0019": {
    "postcode": "0230019",
    "prefecture": "岩手県",
    "prefecture_kana": "イワテケン",
    "prefecture_code": 3,
    "city": "奥州市",
    "city_kana": "オウシュウシ",
    "town": "水沢区築舘",
    "town_kana": "ミズサワクツキダテ",
    "street": null,
    "office_name": null,
    "office_name_kana": null
  },
  "0021": {
    "postcode": "0230021",
    "prefecture": "岩手県",
    "prefecture_kana": "イワテケン",
    "prefecture_code": 3,
    "city": "奥州市",
    "city_kana": "オウシュウシ",
    "town": "水沢区欠ノ下",
    "town_kana": "ミズサワクカケノシタ",
    "street": null,
    "office_name": null,
    "office_name_kana": null
  },
  "0022": {
    "postcode": "0230022",
    "prefecture": "岩手県",
    "prefecture_kana": "イワテケン",
    "prefecture_code": 3,
    "city": "奥州市",
    "city_kana": "オウシュウシ",
    "town": "水沢区中城",
    "town_kana": "ミズサワクナカシロ",
    "street": null,
    "office_name": null,
    "office_name_kana": null
  },
  "0023": {
    "postcode": "0230023",
    "prefecture": "岩手県",
    "prefecture_kana": "イワテケン",
    "prefecture_code": 3,
    "city": "奥州市",
    "city_kana": "オウシュウシ",
    "town": "水沢区八反町",
    "town_kana": "ミズサワクハッタンマチ",
    "street": null,
    "office_name": null,
    "office_name_kana": null
  },
  "0024": {
    "postcode": "0230024",
    "prefecture": "岩手県",
    "prefecture_kana": "イワテケン",
    "prefecture_code": 3,
    "city": "奥州市",
    "city_kana": "オウシュウシ",
    "town": "水沢区名残",
    "town_kana": "ミズサワクナゴリ",
    "street": null,
    "office_name": null,
    "office_name_kana": null
  },
  "0025": {
    "postcode": "0230025",
    "prefecture": "岩手県",
    "prefecture_kana": "イワテケン",
    "prefecture_code": 3,
    "city": "奥州市",
    "city_kana": "オウシュウシ",
    "town": "水沢区高網",
    "town_kana": "ミズサワクコウアミ",
    "street": null,
    "office_name": null,
    "office_name_kana": null
  },
  "0026": {
    "postcode": "0230026",
    "prefecture": "岩手県",
    "prefecture_kana": "イワテケン",
    "prefecture_code": 3,
    "city": "奥州市",
    "city_kana": "オウシュウシ",
    "town": "水沢区里鎗",
    "town_kana": "ミズサワクサトヤリ",
    "street": null,
    "office_name": null,
    "office_name_kana": null
  },
  "0027": {
    "postcode": "0230027",
    "prefecture": "岩手県",
    "prefecture_kana": "イワテケン",
    "prefecture_code": 3,
    "city": "奥州市",
    "city_kana": "オウシュウシ",
    "town": "水沢区幅下",
    "town_kana": "ミズサワクハバシタ",
    "street": null,
    "office_name": null,
    "office_name_kana": null
  },
  "0031": {
    "postcode": "0230031",
    "prefecture": "岩手県",
    "prefecture_kana": "イワテケン",
    "prefecture_code": 3,
    "city": "奥州市",
    "city_kana": "オウシュウシ",
    "town": "水沢区北丑沢",
    "town_kana": "ミズサワクキタウシザワ",
    "street": null,
    "office_name": null,
    "office_name_kana": null
  },
  "0032": {
    "postcode": "0230032",
    "prefecture": "岩手県",
    "prefecture_kana": "イワテケン",
    "prefecture_code": 3,
    "city": "奥州市",
    "city_kana": "オウシュウシ",
    "town": "水沢区多賀",
    "town_kana": "ミズサワクタガ",
    "street": null,
    "office_name": null,
    "office_name_kana": null
  },
  "0033": {
    "postcode": "0230033",
    "prefecture": "岩手県",
    "prefecture_kana": "イワテケン",
    "prefecture_code": 3,
    "city": "奥州市",
    "city_kana": "オウシュウシ",
    "town": "水沢区不断町",
    "town_kana": "ミズサワクフダンチョウ",
    "street": null,
    "office_name": null,
    "office_name_kana": null
  },
  "0034": {
    "postcode": "0230034",
    "prefecture": "岩手県",
    "prefecture_kana": "イワテケン",
    "prefecture_code": 3,
    "city": "奥州市",
    "city_kana": "オウシュウシ",
    "town": "水沢区川口町",
    "town_kana": "ミズサワクカワグチマチ",
    "street": null,
    "office_name": null,
    "office_name_kana": null
  },
  "0035": {
    "postcode": "0230035",
    "prefecture": "岩手県",
    "prefecture_kana": "イワテケン",
    "prefecture_code": 3,
    "city": "奥州市",
    "city_kana": "オウシュウシ",
    "town": "水沢区赤土田",
    "town_kana": "ミズサワクアカツチダ",
    "street": null,
    "office_name": null,
    "office_name_kana": null
  },
  "0036": {
    "postcode": "0230036",
    "prefecture": "岩手県",
    "prefecture_kana": "イワテケン",
    "prefecture_code": 3,
    "city": "奥州市",
    "city_kana": "オウシュウシ",
    "town": "水沢区北栗林",
    "town_kana": "ミズサワクキタクリバヤシ",
    "street": null,
    "office_name": null,
    "office_name_kana": null
  },
  "0037": {
    "postcode": "0230037",
    "prefecture": "岩手県",
    "prefecture_kana": "イワテケン",
    "prefecture_code": 3,
    "city": "奥州市",
    "city_kana": "オウシュウシ",
    "town": "水沢区南丑沢",
    "town_kana": "ミズサワクミナミウシザワ",
    "street": null,
    "office_name": null,
    "office_name_kana": null
  },
  "0041": {
    "postcode": "0230041",
    "prefecture": "岩手県",
    "prefecture_kana": "イワテケン",
    "prefecture_code": 3,
    "city": "奥州市",
    "city_kana": "オウシュウシ",
    "town": "水沢区秋葉町",
    "town_kana": "ミズサワクアキバチョウ",
    "street": null,
    "office_name": null,
    "office_name_kana": null
  },
  "0042": {
    "postcode": "0230042",
    "prefecture": "岩手県",
    "prefecture_kana": "イワテケン",
    "prefecture_code": 3,
    "city": "奥州市",
    "city_kana": "オウシュウシ",
    "town": "水沢区柳町",
    "town_kana": "ミズサワクヤナギマチ",
    "street": null,
    "office_name": null,
    "office_name_kana": null
  },
  "0043": {
    "postcode": "0230043",
    "prefecture": "岩手県",
    "prefecture_kana": "イワテケン",
    "prefecture_code": 3,
    "city": "奥州市",
    "city_kana": "オウシュウシ",
    "town": "水沢区道合",
    "town_kana": "ミズサワクミチアイ",
    "street": null,
    "office_name": null,
    "office_name_kana": null
  },
  "0044": {
    "postcode": "0230044",
    "prefecture": "岩手県",
    "prefecture_kana": "イワテケン",
    "prefecture_code": 3,
    "city": "奥州市",
    "city_kana": "オウシュウシ",
    "town": "水沢区三本木",
    "town_kana": "ミズサワクサンボンギ",
    "street": null,
    "office_name": null,
    "office_name_kana": null
  },
  "0045": {
    "postcode": "0230045",
    "prefecture": "岩手県",
    "prefecture_kana": "イワテケン",
    "prefecture_code": 3,
    "city": "奥州市",
    "city_kana": "オウシュウシ",
    "town": "水沢区大町",
    "town_kana": "ミズサワクオオマチ",
    "street": null,
    "office_name": null,
    "office_name_kana": null
  },
  "0046": {
    "postcode": "0230046",
    "prefecture": "岩手県",
    "prefecture_kana": "イワテケン",
    "prefecture_code": 3,
    "city": "奥州市",
    "city_kana": "オウシュウシ",
    "town": "水沢区川原小路",
    "town_kana": "ミズサワクカワラコウジ",
    "street": null,
    "office_name": null,
    "office_name_kana": null
  },
  "0047": {
    "postcode": "0230047",
    "prefecture": "岩手県",
    "prefecture_kana": "イワテケン",
    "prefecture_code": 3,
    "city": "奥州市",
    "city_kana": "オウシュウシ",
    "town": "水沢区立町",
    "town_kana": "ミズサワクタチマチ",
    "street": null,
    "office_name": null,
    "office_name_kana": null
  },
  "0051": {
    "postcode": "0230051",
    "prefecture": "岩手県",
    "prefecture_kana": "イワテケン",
    "prefecture_code": 3,
    "city": "奥州市",
    "city_kana": "オウシュウシ",
    "town": "水沢区勝手町",
    "town_kana": "ミズサワクカッテチョウ",
    "street": null,
    "office_name": null,
    "office_name_kana": null
  },
  "0052": {
    "postcode": "0230052",
    "prefecture": "岩手県",
    "prefecture_kana": "イワテケン",
    "prefecture_code": 3,
    "city": "奥州市",
    "city_kana": "オウシュウシ",
    "town": "水沢区搦手丁",
    "town_kana": "ミズサワクカラメテチョウ",
    "street": null,
    "office_name": null,
    "office_name_kana": null
  },
  "0053": {
    "postcode": "0230053",
    "prefecture": "岩手県",
    "prefecture_kana": "イワテケン",
    "prefecture_code": 3,
    "city": "奥州市",
    "city_kana": "オウシュウシ",
    "town": "水沢区大手町",
    "town_kana": "ミズサワクオオテマチ",
    "street": null,
    "office_name": null,
    "office_name_kana": null
  },
  "0054": {
    "postcode": "0230054",
    "prefecture": "岩手県",
    "prefecture_kana": "イワテケン",
    "prefecture_code": 3,
    "city": "奥州市",
    "city_kana": "オウシュウシ",
    "town": "水沢区吉小路",
    "town_kana": "ミズサワクキチコウジ",
    "street": null,
    "office_name": null,
    "office_name_kana": null
  },
  "0055": {
    "postcode": "0230055",
    "prefecture": "岩手県",
    "prefecture_kana": "イワテケン",
    "prefecture_code": 3,
    "city": "奥州市",
    "city_kana": "オウシュウシ",
    "town": "水沢区虚空蔵小路",
    "town_kana": "ミズサワクコクゾウコウジ",
    "street": null,
    "office_name": null,
    "office_name_kana": null
  },
  "0056": {
    "postcode": "0230056",
    "prefecture": "岩手県",
    "prefecture_kana": "イワテケン",
    "prefecture_code": 3,
    "city": "奥州市",
    "city_kana": "オウシュウシ",
    "town": "水沢区久田",
    "town_kana": "ミズサワクキュウデン",
    "street": null,
    "office_name": null,
    "office_name_kana": null
  },
  "0057": {
    "postcode": "0230057",
    "prefecture": "岩手県",
    "prefecture_kana": "イワテケン",
    "prefecture_code": 3,
    "city": "奥州市",
    "city_kana": "オウシュウシ",
    "town": "水沢区上町",
    "town_kana": "ミズサワクウワマチ",
    "street": null,
    "office_name": null,
    "office_name_kana": null
  },
  "0058": {
    "postcode": "0230058",
    "prefecture": "岩手県",
    "prefecture_kana": "イワテケン",
    "prefecture_code": 3,
    "city": "奥州市",
    "city_kana": "オウシュウシ",
    "town": "水沢区堀ノ内",
    "town_kana": "ミズサワクホリノウチ",
    "street": null,
    "office_name": null,
    "office_name_kana": null
  },
  "0061": {
    "postcode": "0230061",
    "prefecture": "岩手県",
    "prefecture_kana": "イワテケン",
    "prefecture_code": 3,
    "city": "奥州市",
    "city_kana": "オウシュウシ",
    "town": "水沢区長町",
    "town_kana": "ミズサワクナガマチ",
    "street": null,
    "office_name": null,
    "office_name_kana": null
  },
  "0062": {
    "postcode": "0230062",
    "prefecture": "岩手県",
    "prefecture_kana": "イワテケン",
    "prefecture_code": 3,
    "city": "奥州市",
    "city_kana": "オウシュウシ",
    "town": "水沢区小石田",
    "town_kana": "ミズサワクコイシダ",
    "street": null,
    "office_name": null,
    "office_name_kana": null
  },
  "0063": {
    "postcode": "0230063",
    "prefecture": "岩手県",
    "prefecture_kana": "イワテケン",
    "prefecture_code": 3,
    "city": "奥州市",
    "city_kana": "オウシュウシ",
    "town": "水沢区聖天",
    "town_kana": "ミズサワクショウテン",
    "street": null,
    "office_name": null,
    "office_name_kana": null
  },
  "0064": {
    "postcode": "0230064",
    "prefecture": "岩手県",
    "prefecture_kana": "イワテケン",
    "prefecture_code": 3,
    "city": "奥州市",
    "city_kana": "オウシュウシ",
    "town": "水沢区土器田",
    "town_kana": "ミズサワクドキタ",
    "street": null,
    "office_name": null,
    "office_name_kana": null
  },
  "0065": {
    "postcode": "0230065",
    "prefecture": "岩手県",
    "prefecture_kana": "イワテケン",
    "prefecture_code": 3,
    "city": "奥州市",
    "city_kana": "オウシュウシ",
    "town": "水沢区水山",
    "town_kana": "ミズサワクミズヤマ",
    "street": null,
    "office_name": null,
    "office_name_kana": null
  },
  "0066": {
    "postcode": "0230066",
    "prefecture": "岩手県",
    "prefecture_kana": "イワテケン",
    "prefecture_code": 3,
    "city": "奥州市",
    "city_kana": "オウシュウシ",
    "town": "水沢区前田袋",
    "town_kana": "ミズサワクマエタブクロ",
    "street": null,
    "office_name": null,
    "office_name_kana": null
  },
  "0067": {
    "postcode": "0230067",
    "prefecture": "岩手県",
    "prefecture_kana": "イワテケン",
    "prefecture_code": 3,
    "city": "奥州市",
    "city_kana": "オウシュウシ",
    "town": "水沢区二反田",
    "town_kana": "ミズサワクニタンダ",
    "street": null,
    "office_name": null,
    "office_name_kana": null
  },
  "0071": {
    "postcode": "0230071",
    "prefecture": "岩手県",
    "prefecture_kana": "イワテケン",
    "prefecture_code": 3,
    "city": "奥州市",
    "city_kana": "オウシュウシ",
    "town": "水沢区黒子",
    "town_kana": "ミズサワククロコ",
    "street": null,
    "office_name": null,
    "office_name_kana": null
  },
  "0072": {
    "postcode": "0230072",
    "prefecture": "岩手県",
    "prefecture_kana": "イワテケン",
    "prefecture_code": 3,
    "city": "奥州市",
    "city_kana": "オウシュウシ",
    "town": "水沢区樋渡",
    "town_kana": "ミズサワクヒワタシ",
    "street": null,
    "office_name": null,
    "office_name_kana": null
  },
  "0073": {
    "postcode": "0230073",
    "prefecture": "岩手県",
    "prefecture_kana": "イワテケン",
    "prefecture_code": 3,
    "city": "奥州市",
    "city_kana": "オウシュウシ",
    "town": "水沢区寺領",
    "town_kana": "ミズサワクジリョウ",
    "street": null,
    "office_name": null,
    "office_name_kana": null
  },
  "0074": {
    "postcode": "0230074",
    "prefecture": "岩手県",
    "prefecture_kana": "イワテケン",
    "prefecture_code": 3,
    "city": "奥州市",
    "city_kana": "オウシュウシ",
    "town": "水沢区極楽",
    "town_kana": "ミズサワクゴクラク",
    "street": null,
    "office_name": null,
    "office_name_kana": null
  },
  "0075": {
    "postcode": "0230075",
    "prefecture": "岩手県",
    "prefecture_kana": "イワテケン",
    "prefecture_code": 3,
    "city": "奥州市",
    "city_kana": "オウシュウシ",
    "town": "水沢区水ノ口",
    "town_kana": "ミズサワクミノクチ",
    "street": null,
    "office_name": null,
    "office_name_kana": null
  },
  "0076": {
    "postcode": "0230076",
    "prefecture": "岩手県",
    "prefecture_kana": "イワテケン",
    "prefecture_code": 3,
    "city": "奥州市",
    "city_kana": "オウシュウシ",
    "town": "水沢区造道",
    "town_kana": "ミズサワクツクリミチ",
    "street": null,
    "office_name": null,
    "office_name_kana": null
  },
  "0077": {
    "postcode": "0230077",
    "prefecture": "岩手県",
    "prefecture_kana": "イワテケン",
    "prefecture_code": 3,
    "city": "奥州市",
    "city_kana": "オウシュウシ",
    "town": "水沢区桑畑",
    "town_kana": "ミズサワククワバタ",
    "street": null,
    "office_name": null,
    "office_name_kana": null
  },
  "0081": {
    "postcode": "0230081",
    "prefecture": "岩手県",
    "prefecture_kana": "イワテケン",
    "prefecture_code": 3,
    "city": "奥州市",
    "city_kana": "オウシュウシ",
    "town": "水沢区橇町",
    "town_kana": "ミズサワクソリマチ",
    "street": null,
    "office_name": null,
    "office_name_kana": null
  },
  "0082": {
    "postcode": "0230082",
    "prefecture": "岩手県",
    "prefecture_kana": "イワテケン",
    "prefecture_code": 3,
    "city": "奥州市",
    "city_kana": "オウシュウシ",
    "town": "水沢区東半郷",
    "town_kana": "ミズサワクヒガシハンゴウ",
    "street": null,
    "office_name": null,
    "office_name_kana": null
  },
  "0083": {
    "postcode": "0230083",
    "prefecture": "岩手県",
    "prefecture_kana": "イワテケン",
    "prefecture_code": 3,
    "city": "奥州市",
    "city_kana": "オウシュウシ",
    "town": "水沢区前郷",
    "town_kana": "ミズサワクゼンゴウ",
    "street": null,
    "office_name": null,
    "office_name_kana": null
  },
  "0084": {
    "postcode": "0230084",
    "prefecture": "岩手県",
    "prefecture_kana": "イワテケン",
    "prefecture_code": 3,
    "city": "奥州市",
    "city_kana": "オウシュウシ",
    "town": "水沢区大上",
    "town_kana": "ミズサワクオオガミ",
    "street": null,
    "office_name": null,
    "office_name_kana": null
  },
  "0085": {
    "postcode": "0230085",
    "prefecture": "岩手県",
    "prefecture_kana": "イワテケン",
    "prefecture_code": 3,
    "city": "奥州市",
    "city_kana": "オウシュウシ",
    "town": "水沢区踊子",
    "town_kana": "ミズサワクオドリコ",
    "street": null,
    "office_name": null,
    "office_name_kana": null
  },
  "0086": {
    "postcode": "0230086",
    "prefecture": "岩手県",
    "prefecture_kana": "イワテケン",
    "prefecture_code": 3,
    "city": "奥州市",
    "city_kana": "オウシュウシ",
    "town": "水沢区谷地中",
    "town_kana": "ミズサワクヤチナカ",
    "street": null,
    "office_name": null,
    "office_name_kana": null
  },
  "0087": {
    "postcode": "0230087",
    "prefecture": "岩手県",
    "prefecture_kana": "イワテケン",
    "prefecture_code": 3,
    "city": "奥州市",
    "city_kana": "オウシュウシ",
    "town": "水沢区高谷宿",
    "town_kana": "ミズサワクコウヤシュク",
    "street": null,
    "office_name": null,
    "office_name_kana": null
  },
  "0091": {
    "postcode": "0230091",
    "prefecture": "岩手県",
    "prefecture_kana": "イワテケン",
    "prefecture_code": 3,
    "city": "奥州市",
    "city_kana": "オウシュウシ",
    "town": "水沢区高山",
    "town_kana": "ミズサワクタカヤマ",
    "street": null,
    "office_name": null,
    "office_name_kana": null
  },
  "0092": {
    "postcode": "0230092",
    "prefecture": "岩手県",
    "prefecture_kana": "イワテケン",
    "prefecture_code": 3,
    "city": "奥州市",
    "city_kana": "オウシュウシ",
    "town": "水沢区北半郷",
    "town_kana": "ミズサワクキタハンゴウ",
    "street": null,
    "office_name": null,
    "office_name_kana": null
  },
  "0093": {
    "postcode": "0230093",
    "prefecture": "岩手県",
    "prefecture_kana": "イワテケン",
    "prefecture_code": 3,
    "city": "奥州市",
    "city_kana": "オウシュウシ",
    "town": "水沢区水神",
    "town_kana": "ミズサワクミズガミ",
    "street": null,
    "office_name": null,
    "office_name_kana": null
  },
  "0094": {
    "postcode": "0230094",
    "prefecture": "岩手県",
    "prefecture_kana": "イワテケン",
    "prefecture_code": 3,
    "city": "奥州市",
    "city_kana": "オウシュウシ",
    "town": "水沢区五輪",
    "town_kana": "ミズサワクゴリン",
    "street": null,
    "office_name": null,
    "office_name_kana": null
  },
  "0095": {
    "postcode": "0230095",
    "prefecture": "岩手県",
    "prefecture_kana": "イワテケン",
    "prefecture_code": 3,
    "city": "奥州市",
    "city_kana": "オウシュウシ",
    "town": "水沢区雀田",
    "town_kana": "ミズサワクスズメダ",
    "street": null,
    "office_name": null,
    "office_name_kana": null
  },
  "0096": {
    "postcode": "0230096",
    "prefecture": "岩手県",
    "prefecture_kana": "イワテケン",
    "prefecture_code": 3,
    "city": "奥州市",
    "city_kana": "オウシュウシ",
    "town": "水沢区向田",
    "town_kana": "ミズサワクムカイダ",
    "street": null,
    "office_name": null,
    "office_name_kana": null
  },
  "0101": {
    "postcode": "0230101",
    "prefecture": "岩手県",
    "prefecture_kana": "イワテケン",
    "prefecture_code": 3,
    "city": "奥州市",
    "city_kana": "オウシュウシ",
    "town": "水沢区黒石町",
    "town_kana": "ミズサワククロイシチョウ",
    "street": null,
    "office_name": null,
    "office_name_kana": null
  },
  "0102": {
    "postcode": "0230102",
    "prefecture": "岩手県",
    "prefecture_kana": "イワテケン",
    "prefecture_code": 3,
    "city": "奥州市",
    "city_kana": "オウシュウシ",
    "town": "水沢区羽田町駅東",
    "town_kana": "ミズサワクハダチョウエキヒガシ",
    "street": null,
    "office_name": null,
    "office_name_kana": null
  },
  "0103": {
    "postcode": "0230103",
    "prefecture": "岩手県",
    "prefecture_kana": "イワテケン",
    "prefecture_code": 3,
    "city": "奥州市",
    "city_kana": "オウシュウシ",
    "town": "水沢区羽田町駅南",
    "town_kana": "ミズサワクハダチョウエキミナミ",
    "street": null,
    "office_name": null,
    "office_name_kana": null
  },
  "0104": {
    "postcode": "0230104",
    "prefecture": "岩手県",
    "prefecture_kana": "イワテケン",
    "prefecture_code": 3,
    "city": "奥州市",
    "city_kana": "オウシュウシ",
    "town": "水沢区羽田町駅前",
    "town_kana": "ミズサワクハダチョウエキマエ",
    "street": null,
    "office_name": null,
    "office_name_kana": null
  },
  "0105": {
    "postcode": "0230105",
    "prefecture": "岩手県",
    "prefecture_kana": "イワテケン",
    "prefecture_code": 3,
    "city": "奥州市",
    "city_kana": "オウシュウシ",
    "town": "水沢区羽田町宝生",
    "town_kana": "ミズサワクハダチョウホウショウ",
    "street": null,
    "office_name": null,
    "office_name_kana": null
  },
  "0106": {
    "postcode": "0230106",
    "prefecture": "岩手県",
    "prefecture_kana": "イワテケン",
    "prefecture_code": 3,
    "city": "奥州市",
    "city_kana": "オウシュウシ",
    "town": "水沢区羽田町久保",
    "town_kana": "ミズサワクハダチョウクボ",
    "street": null,
    "office_name": null,
    "office_name_kana": null
  },
  "0107": {
    "postcode": "0230107",
    "prefecture": "岩手県",
    "prefecture_kana": "イワテケン",
    "prefecture_code": 3,
    "city": "奥州市",
    "city_kana": "オウシュウシ",
    "town": "水沢区羽田町宝柳木",
    "town_kana": "ミズサワクハダチョウホウリュウギ",
    "street": null,
    "office_name": null,
    "office_name_kana": null
  },
  "0108": {
    "postcode": "0230108",
    "prefecture": "岩手県",
    "prefecture_kana": "イワテケン",
    "prefecture_code": 3,
    "city": "奥州市",
    "city_kana": "オウシュウシ",
    "town": "水沢区羽田町向畑",
    "town_kana": "ミズサワクハダチョウムカイハタ",
    "street": null,
    "office_name": null,
    "office_name_kana": null
  },
  "0132": {
    "postcode": "0230132",
    "prefecture": "岩手県",
    "prefecture_kana": "イワテケン",
    "prefecture_code": 3,
    "city": "奥州市",
    "city_kana": "オウシュウシ",
    "town": "水沢区羽田町",
    "town_kana": "ミズサワクハダチョウ",
    "street": null,
    "office_name": null,
    "office_name_kana": null
  },
  "0171": {
    "postcode": "0230171",
    "prefecture": "岩手県",
    "prefecture_kana": "イワテケン",
    "prefecture_code": 3,
    "city": "奥州市",
    "city_kana": "オウシュウシ",
    "town": "江刺区田原",
    "town_kana": "エサシクタワラ",
    "street": null,
    "office_name": null,
    "office_name_kana": null
  },
  "0401": {
    "postcode": "0230401",
    "prefecture": "岩手県",
    "prefecture_kana": "イワテケン",
    "prefecture_code": 3,
    "city": "奥州市",
    "city_kana": "オウシュウシ",
    "town": "胆沢区南都田",
    "town_kana": "イサワクナツタ",
    "street": null,
    "office_name": null,
    "office_name_kana": null
  },
  "0402": {
    "postcode": "0230402",
    "prefecture": "岩手県",
    "prefecture_kana": "イワテケン",
    "prefecture_code": 3,
    "city": "奥州市",
    "city_kana": "オウシュウシ",
    "town": "胆沢区小山",
    "town_kana": "イサワクオヤマ",
    "street": null,
    "office_name": null,
    "office_name_kana": null
  },
  "0403": {
    "postcode": "0230403",
    "prefecture": "岩手県",
    "prefecture_kana": "イワテケン",
    "prefecture_code": 3,
    "city": "奥州市",
    "city_kana": "オウシュウシ",
    "town": "胆沢区若柳",
    "town_kana": "イサワクワカヤナギ",
    "street": null,
    "office_name": null,
    "office_name_kana": null
  },
  "0492": {
    "postcode": "0230492",
    "prefecture": "岩手県",
    "prefecture_kana": "イワテケン",
    "prefecture_code": 3,
    "city": "奥州市",
    "city_kana": "オウシュウシ",
    "town": "胆沢区南都田",
    "town_kana": "イサワクナツタ",
    "street": "字加賀谷地２７０",
    "office_name": "奥州市　胆沢総合支所",
    "office_name_kana": "オウシユウシ イサワソウゴウシシヨ"
  },
  "0493": {
    "postcode": "0230493",
    "prefecture": "岩手県",
    "prefecture_kana": "イワテケン",
    "prefecture_code": 3,
    "city": "奥州市",
    "city_kana": "オウシュウシ",
    "town": "胆沢区小山",
    "town_kana": "イサワクオヤマ",
    "street": "字下野中２−５",
    "office_name": "（株）　小山製麺",
    "office_name_kana": "カブシキカイシヤ オヤマセイメン"
  },
  "0801": {
    "postcode": "0230801",
    "prefecture": "岩手県",
    "prefecture_kana": "イワテケン",
    "prefecture_code": 3,
    "city": "奥州市",
    "city_kana": "オウシュウシ",
    "town": "水沢区横町",
    "town_kana": "ミズサワクヨコマチ",
    "street": null,
    "office_name": null,
    "office_name_kana": null
  },
  "0802": {
    "postcode": "0230802",
    "prefecture": "岩手県",
    "prefecture_kana": "イワテケン",
    "prefecture_code": 3,
    "city": "奥州市",
    "city_kana": "オウシュウシ",
    "town": "水沢区大畑小路",
    "town_kana": "ミズサワクオオバタケコウジ",
    "street": null,
    "office_name": null,
    "office_name_kana": null
  },
  "0803": {
    "postcode": "0230803",
    "prefecture": "岩手県",
    "prefecture_kana": "イワテケン",
    "prefecture_code": 3,
    "city": "奥州市",
    "city_kana": "オウシュウシ",
    "town": "水沢区田小路",
    "town_kana": "ミズサワクタコウジ",
    "street": null,
    "office_name": null,
    "office_name_kana": null
  },
  "0804": {
    "postcode": "0230804",
    "prefecture": "岩手県",
    "prefecture_kana": "イワテケン",
    "prefecture_code": 3,
    "city": "奥州市",
    "city_kana": "オウシュウシ",
    "town": "水沢区谷地明円",
    "town_kana": "ミズサワクヤチミョウエン",
    "street": null,
    "office_name": null,
    "office_name_kana": null
  },
  "0805": {
    "postcode": "0230805",
    "prefecture": "岩手県",
    "prefecture_kana": "イワテケン",
    "prefecture_code": 3,
    "city": "奥州市",
    "city_kana": "オウシュウシ",
    "town": "水沢区斉の神",
    "town_kana": "ミズサワクサイノカミ",
    "street": null,
    "office_name": null,
    "office_name_kana": null
  },
  "0806": {
    "postcode": "0230806",
    "prefecture": "岩手県",
    "prefecture_kana": "イワテケン",
    "prefecture_code": 3,
    "city": "奥州市",
    "city_kana": "オウシュウシ",
    "town": "水沢区日高西",
    "town_kana": "ミズサワクヒタカニシ",
    "street": null,
    "office_name": null,
    "office_name_kana": null
  },
  "0807": {
    "postcode": "0230807",
    "prefecture": "岩手県",
    "prefecture_kana": "イワテケン",
    "prefecture_code": 3,
    "city": "奥州市",
    "city_kana": "オウシュウシ",
    "town": "水沢区新小路",
    "town_kana": "ミズサワクシンコウジ",
    "street": null,
    "office_name": null,
    "office_name_kana": null
  },
  "0808": {
    "postcode": "0230808",
    "prefecture": "岩手県",
    "prefecture_kana": "イワテケン",
    "prefecture_code": 3,
    "city": "奥州市",
    "city_kana": "オウシュウシ",
    "town": "水沢区日高小路",
    "town_kana": "ミズサワクヒタカコウジ",
    "street": null,
    "office_name": null,
    "office_name_kana": null
  },
  "0811": {
    "postcode": "0230811",
    "prefecture": "岩手県",
    "prefecture_kana": "イワテケン",
    "prefecture_code": 3,
    "city": "奥州市",
    "city_kana": "オウシュウシ",
    "town": "水沢区寺小路",
    "town_kana": "ミズサワクテラコウジ",
    "street": null,
    "office_name": null,
    "office_name_kana": null
  },
  "0812": {
    "postcode": "0230812",
    "prefecture": "岩手県",
    "prefecture_kana": "イワテケン",
    "prefecture_code": 3,
    "city": "奥州市",
    "city_kana": "オウシュウシ",
    "town": "水沢区寺脇",
    "town_kana": "ミズサワクテラワキ",
    "street": null,
    "office_name": null,
    "office_name_kana": null
  },
  "0813": {
    "postcode": "0230813",
    "prefecture": "岩手県",
    "prefecture_kana": "イワテケン",
    "prefecture_code": 3,
    "city": "奥州市",
    "city_kana": "オウシュウシ",
    "town": "水沢区中町",
    "town_kana": "ミズサワクナカマチ",
    "street": null,
    "office_name": null,
    "office_name_kana": null
  },
  "0814": {
    "postcode": "0230814",
    "prefecture": "岩手県",
    "prefecture_kana": "イワテケン",
    "prefecture_code": 3,
    "city": "奥州市",
    "city_kana": "オウシュウシ",
    "town": "水沢区袋町",
    "town_kana": "ミズサワクフクロマチ",
    "street": null,
    "office_name": null,
    "office_name_kana": null
  },
  "0815": {
    "postcode": "0230815",
    "prefecture": "岩手県",
    "prefecture_kana": "イワテケン",
    "prefecture_code": 3,
    "city": "奥州市",
    "city_kana": "オウシュウシ",
    "town": "水沢区天文台通り",
    "town_kana": "ミズサワクテンモンダイドオリ",
    "street": null,
    "office_name": null,
    "office_name_kana": null
  },
  "0816": {
    "postcode": "0230816",
    "prefecture": "岩手県",
    "prefecture_kana": "イワテケン",
    "prefecture_code": 3,
    "city": "奥州市",
    "city_kana": "オウシュウシ",
    "town": "水沢区西町",
    "town_kana": "ミズサワクニシマチ",
    "street": null,
    "office_name": null,
    "office_name_kana": null
  },
  "0817": {
    "postcode": "0230817",
    "prefecture": "岩手県",
    "prefecture_kana": "イワテケン",
    "prefecture_code": 3,
    "city": "奥州市",
    "city_kana": "オウシュウシ",
    "town": "水沢区宮下町",
    "town_kana": "ミズサワクミヤシタチョウ",
    "street": null,
    "office_name": null,
    "office_name_kana": null
  },
  "0818": {
    "postcode": "0230818",
    "prefecture": "岩手県",
    "prefecture_kana": "イワテケン",
    "prefecture_code": 3,
    "city": "奥州市",
    "city_kana": "オウシュウシ",
    "town": "水沢区東町",
    "town_kana": "ミズサワクアズマチョウ",
    "street": null,
    "office_name": null,
    "office_name_kana": null
  },
  "0821": {
    "postcode": "0230821",
    "prefecture": "岩手県",
    "prefecture_kana": "イワテケン",
    "prefecture_code": 3,
    "city": "奥州市",
    "city_kana": "オウシュウシ",
    "town": "水沢区神明町",
    "town_kana": "ミズサワクシンメイチョウ",
    "street": null,
    "office_name": null,
    "office_name_kana": null
  },
  "0822": {
    "postcode": "0230822",
    "prefecture": "岩手県",
    "prefecture_kana": "イワテケン",
    "prefecture_code": 3,
    "city": "奥州市",
    "city_kana": "オウシュウシ",
    "town": "水沢区東中通り",
    "town_kana": "ミズサワクヒガシナカドオリ",
    "street": null,
    "office_name": null,
    "office_name_kana": null
  },
  "0823": {
    "postcode": "0230823",
    "prefecture": "岩手県",
    "prefecture_kana": "イワテケン",
    "prefecture_code": 3,
    "city": "奥州市",
    "city_kana": "オウシュウシ",
    "town": "水沢区朝日町",
    "town_kana": "ミズサワクアサヒチョウ",
    "street": null,
    "office_name": null,
    "office_name_kana": null
  },
  "0824": {
    "postcode": "0230824",
    "prefecture": "岩手県",
    "prefecture_kana": "イワテケン",
    "prefecture_code": 3,
    "city": "奥州市",
    "city_kana": "オウシュウシ",
    "town": "水沢区泉町",
    "town_kana": "ミズサワクイズミチョウ",
    "street": null,
    "office_name": null,
    "office_name_kana": null
  },
  "0825": {
    "postcode": "0230825",
    "prefecture": "岩手県",
    "prefecture_kana": "イワテケン",
    "prefecture_code": 3,
    "city": "奥州市",
    "city_kana": "オウシュウシ",
    "town": "水沢区台町",
    "town_kana": "ミズサワクダイマチ",
    "street": null,
    "office_name": null,
    "office_name_kana": null
  },
  "0826": {
    "postcode": "0230826",
    "prefecture": "岩手県",
    "prefecture_kana": "イワテケン",
    "prefecture_code": 3,
    "city": "奥州市",
    "city_kana": "オウシュウシ",
    "town": "水沢区中田町",
    "town_kana": "ミズサワクナカダチョウ",
    "street": null,
    "office_name": null,
    "office_name_kana": null
  },
  "0827": {
    "postcode": "0230827",
    "prefecture": "岩手県",
    "prefecture_kana": "イワテケン",
    "prefecture_code": 3,
    "city": "奥州市",
    "city_kana": "オウシュウシ",
    "town": "水沢区太日通り",
    "town_kana": "ミズサワクタイニチドオリ",
    "street": null,
    "office_name": null,
    "office_name_kana": null
  },
  "0828": {
    "postcode": "0230828",
    "prefecture": "岩手県",
    "prefecture_kana": "イワテケン",
    "prefecture_code": 3,
    "city": "奥州市",
    "city_kana": "オウシュウシ",
    "town": "水沢区東大通り",
    "town_kana": "ミズサワクヒガシオオドオリ",
    "street": null,
    "office_name": null,
    "office_name_kana": null
  },
  "0829": {
    "postcode": "0230829",
    "prefecture": "岩手県",
    "prefecture_kana": "イワテケン",
    "prefecture_code": 3,
    "city": "奥州市",
    "city_kana": "オウシュウシ",
    "town": "水沢区花園町",
    "town_kana": "ミズサワクハナゾノチョウ",
    "street": null,
    "office_name": null,
    "office_name_kana": null
  },
  "0831": {
    "postcode": "0230831",
    "prefecture": "岩手県",
    "prefecture_kana": "イワテケン",
    "prefecture_code": 3,
    "city": "奥州市",
    "city_kana": "オウシュウシ",
    "town": "水沢区姉体町",
    "town_kana": "ミズサワクアネタイチョウ",
    "street": null,
    "office_name": null,
    "office_name_kana": null
  },
  "0832": [
    {
      "postcode": "0230832",
      "prefecture": "岩手県",
      "prefecture_kana": "イワテケン",
      "prefecture_code": 3,
      "city": "奥州市",
      "city_kana": "オウシュウシ",
      "town": "水沢区羽田町",
      "town_kana": "ミズサワクハダチョウ",
      "street": null,
      "office_name": null,
      "office_name_kana": null
    },
    {
      "postcode": "0230832",
      "prefecture": "岩手県",
      "prefecture_kana": "イワテケン",
      "prefecture_code": 3,
      "city": "奥州市",
      "city_kana": "オウシュウシ",
      "town": "水沢区羽田町草井沼",
      "town_kana": "ミズサワクハダチョウクサイヌマ",
      "street": null,
      "office_name": null,
      "office_name_kana": null
    },
    {
      "postcode": "0230832",
      "prefecture": "岩手県",
      "prefecture_kana": "イワテケン",
      "prefecture_code": 3,
      "city": "奥州市",
      "city_kana": "オウシュウシ",
      "town": "水沢区羽田町下沼",
      "town_kana": "ミズサワクハダチョウシモヌマ",
      "street": null,
      "office_name": null,
      "office_name_kana": null
    },
    {
      "postcode": "0230832",
      "prefecture": "岩手県",
      "prefecture_kana": "イワテケン",
      "prefecture_code": 3,
      "city": "奥州市",
      "city_kana": "オウシュウシ",
      "town": "水沢区羽田町谷木",
      "town_kana": "ミズサワクハダチョウヤギ",
      "street": null,
      "office_name": null,
      "office_name_kana": null
    },
    {
      "postcode": "0230832",
      "prefecture": "岩手県",
      "prefecture_kana": "イワテケン",
      "prefecture_code": 3,
      "city": "奥州市",
      "city_kana": "オウシュウシ",
      "town": "水沢区羽田町元谷木",
      "town_kana": "ミズサワクハダチョウモトヤギ",
      "street": null,
      "office_name": null,
      "office_name_kana": null
    }
  ],
  "0833": {
    "postcode": "0230833",
    "prefecture": "岩手県",
    "prefecture_kana": "イワテケン",
    "prefecture_code": 3,
    "city": "奥州市",
    "city_kana": "オウシュウシ",
    "town": "水沢区上姉体",
    "town_kana": "ミズサワクカミアネタイ",
    "street": null,
    "office_name": null,
    "office_name_kana": null
  },
  "0841": {
    "postcode": "0230841",
    "prefecture": "岩手県",
    "prefecture_kana": "イワテケン",
    "prefecture_code": 3,
    "city": "奥州市",
    "city_kana": "オウシュウシ",
    "town": "水沢区真城",
    "town_kana": "ミズサワクシンジョウ",
    "street": null,
    "office_name": null,
    "office_name_kana": null
  },
  "0842": {
    "postcode": "0230842",
    "prefecture": "岩手県",
    "prefecture_kana": "イワテケン",
    "prefecture_code": 3,
    "city": "奥州市",
    "city_kana": "オウシュウシ",
    "town": "水沢区真城が丘",
    "town_kana": "ミズサワクシンジョウガオカ",
    "street": null,
    "office_name": null,
    "office_name_kana": null
  },
  "0851": {
    "postcode": "0230851",
    "prefecture": "岩手県",
    "prefecture_kana": "イワテケン",
    "prefecture_code": 3,
    "city": "奥州市",
    "city_kana": "オウシュウシ",
    "town": "水沢区南町",
    "town_kana": "ミズサワクミナミマチ",
    "street": null,
    "office_name": null,
    "office_name_kana": null
  },
  "0852": {
    "postcode": "0230852",
    "prefecture": "岩手県",
    "prefecture_kana": "イワテケン",
    "prefecture_code": 3,
    "city": "奥州市",
    "city_kana": "オウシュウシ",
    "town": "水沢区山崎町",
    "town_kana": "ミズサワクヤマザキチョウ",
    "street": null,
    "office_name": null,
    "office_name_kana": null
  },
  "0853": {
    "postcode": "0230853",
    "prefecture": "岩手県",
    "prefecture_kana": "イワテケン",
    "prefecture_code": 3,
    "city": "奥州市",
    "city_kana": "オウシュウシ",
    "town": "水沢区東上野町",
    "town_kana": "ミズサワクヒガシウワノチョウ",
    "street": null,
    "office_name": null,
    "office_name_kana": null
  },
  "0854": {
    "postcode": "0230854",
    "prefecture": "岩手県",
    "prefecture_kana": "イワテケン",
    "prefecture_code": 3,
    "city": "奥州市",
    "city_kana": "オウシュウシ",
    "town": "水沢区大鐘町",
    "town_kana": "ミズサワクオオガネチョウ",
    "street": null,
    "office_name": null,
    "office_name_kana": null
  },
  "0855": {
    "postcode": "0230855",
    "prefecture": "岩手県",
    "prefecture_kana": "イワテケン",
    "prefecture_code": 3,
    "city": "奥州市",
    "city_kana": "オウシュウシ",
    "town": "水沢区南大鐘",
    "town_kana": "ミズサワクミナミオオガネ",
    "street": null,
    "office_name": null,
    "office_name_kana": null
  },
  "0856": {
    "postcode": "0230856",
    "prefecture": "岩手県",
    "prefecture_kana": "イワテケン",
    "prefecture_code": 3,
    "city": "奥州市",
    "city_kana": "オウシュウシ",
    "town": "水沢区西上野町",
    "town_kana": "ミズサワクニシウワノチョウ",
    "street": null,
    "office_name": null,
    "office_name_kana": null
  },
  "0857": {
    "postcode": "0230857",
    "prefecture": "岩手県",
    "prefecture_kana": "イワテケン",
    "prefecture_code": 3,
    "city": "奥州市",
    "city_kana": "オウシュウシ",
    "town": "水沢区中上野町",
    "town_kana": "ミズサワクナカウワノチョウ",
    "street": null,
    "office_name": null,
    "office_name_kana": null
  },
  "0861": {
    "postcode": "0230861",
    "prefecture": "岩手県",
    "prefecture_kana": "イワテケン",
    "prefecture_code": 3,
    "city": "奥州市",
    "city_kana": "オウシュウシ",
    "town": "水沢区星ガ丘町",
    "town_kana": "ミズサワクホシガオカチョウ",
    "street": null,
    "office_name": null,
    "office_name_kana": null
  },
  "0862": {
    "postcode": "0230862",
    "prefecture": "岩手県",
    "prefecture_kana": "イワテケン",
    "prefecture_code": 3,
    "city": "奥州市",
    "city_kana": "オウシュウシ",
    "town": "水沢区福吉町",
    "town_kana": "ミズサワクフクヨシチョウ",
    "street": null,
    "office_name": null,
    "office_name_kana": null
  },
  "0863": {
    "postcode": "0230863",
    "prefecture": "岩手県",
    "prefecture_kana": "イワテケン",
    "prefecture_code": 3,
    "city": "奥州市",
    "city_kana": "オウシュウシ",
    "town": "水沢区川端",
    "town_kana": "ミズサワクカワバタ",
    "street": null,
    "office_name": null,
    "office_name_kana": null
  },
  "0864": {
    "postcode": "0230864",
    "prefecture": "岩手県",
    "prefecture_kana": "イワテケン",
    "prefecture_code": 3,
    "city": "奥州市",
    "city_kana": "オウシュウシ",
    "town": "水沢区龍ケ馬場",
    "town_kana": "ミズサワクリュウガババ",
    "street": null,
    "office_name": null,
    "office_name_kana": null
  },
  "0865": {
    "postcode": "0230865",
    "prefecture": "岩手県",
    "prefecture_kana": "イワテケン",
    "prefecture_code": 3,
    "city": "奥州市",
    "city_kana": "オウシュウシ",
    "town": "水沢区桜屋敷",
    "town_kana": "ミズサワクサクラヤシキ",
    "street": null,
    "office_name": null,
    "office_name_kana": null
  },
  "0866": {
    "postcode": "0230866",
    "prefecture": "岩手県",
    "prefecture_kana": "イワテケン",
    "prefecture_code": 3,
    "city": "奥州市",
    "city_kana": "オウシュウシ",
    "town": "水沢区堰合",
    "town_kana": "ミズサワクセキアイ",
    "street": null,
    "office_name": null,
    "office_name_kana": null
  },
  "0867": {
    "postcode": "0230867",
    "prefecture": "岩手県",
    "prefecture_kana": "イワテケン",
    "prefecture_code": 3,
    "city": "奥州市",
    "city_kana": "オウシュウシ",
    "town": "水沢区大橋",
    "town_kana": "ミズサワクオオハシ",
    "street": null,
    "office_name": null,
    "office_name_kana": null
  },
  "0871": {
    "postcode": "0230871",
    "prefecture": "岩手県",
    "prefecture_kana": "イワテケン",
    "prefecture_code": 3,
    "city": "奥州市",
    "city_kana": "オウシュウシ",
    "town": "水沢区外谷地",
    "town_kana": "ミズサワクソトヤチ",
    "street": null,
    "office_name": null,
    "office_name_kana": null
  },
  "0872": {
    "postcode": "0230872",
    "prefecture": "岩手県",
    "prefecture_kana": "イワテケン",
    "prefecture_code": 3,
    "city": "奥州市",
    "city_kana": "オウシュウシ",
    "town": "水沢区桜屋敷西",
    "town_kana": "ミズサワクサクラヤシキニシ",
    "street": null,
    "office_name": null,
    "office_name_kana": null
  },
  "0873": {
    "postcode": "0230873",
    "prefecture": "岩手県",
    "prefecture_kana": "イワテケン",
    "prefecture_code": 3,
    "city": "奥州市",
    "city_kana": "オウシュウシ",
    "town": "水沢区笹森谷地",
    "town_kana": "ミズサワクササモリヤチ",
    "street": null,
    "office_name": null,
    "office_name_kana": null
  },
  "0874": {
    "postcode": "0230874",
    "prefecture": "岩手県",
    "prefecture_kana": "イワテケン",
    "prefecture_code": 3,
    "city": "奥州市",
    "city_kana": "オウシュウシ",
    "town": "水沢区見分森",
    "town_kana": "ミズサワクミワケモリ",
    "street": null,
    "office_name": null,
    "office_name_kana": null
  },
  "0875": {
    "postcode": "0230875",
    "prefecture": "岩手県",
    "prefecture_kana": "イワテケン",
    "prefecture_code": 3,
    "city": "奥州市",
    "city_kana": "オウシュウシ",
    "town": "水沢区森下",
    "town_kana": "ミズサワクモリシタ",
    "street": null,
    "office_name": null,
    "office_name_kana": null
  },
  "0876": {
    "postcode": "0230876",
    "prefecture": "岩手県",
    "prefecture_kana": "イワテケン",
    "prefecture_code": 3,
    "city": "奥州市",
    "city_kana": "オウシュウシ",
    "town": "水沢区鶴淵",
    "town_kana": "ミズサワクツルブチ",
    "street": null,
    "office_name": null,
    "office_name_kana": null
  },
  "0877": {
    "postcode": "0230877",
    "prefecture": "岩手県",
    "prefecture_kana": "イワテケン",
    "prefecture_code": 3,
    "city": "奥州市",
    "city_kana": "オウシュウシ",
    "town": "水沢区袖谷地",
    "town_kana": "ミズサワクソデヤチ",
    "street": null,
    "office_name": null,
    "office_name_kana": null
  },
  "0881": {
    "postcode": "0230881",
    "prefecture": "岩手県",
    "prefecture_kana": "イワテケン",
    "prefecture_code": 3,
    "city": "奥州市",
    "city_kana": "オウシュウシ",
    "town": "水沢区北田",
    "town_kana": "ミズサワクキタダ",
    "street": null,
    "office_name": null,
    "office_name_kana": null
  },
  "0882": {
    "postcode": "0230882",
    "prefecture": "岩手県",
    "prefecture_kana": "イワテケン",
    "prefecture_code": 3,
    "city": "奥州市",
    "city_kana": "オウシュウシ",
    "town": "水沢区福原",
    "town_kana": "ミズサワクフクワラ",
    "street": null,
    "office_name": null,
    "office_name_kana": null
  },
  "0883": {
    "postcode": "0230883",
    "prefecture": "岩手県",
    "prefecture_kana": "イワテケン",
    "prefecture_code": 3,
    "city": "奥州市",
    "city_kana": "オウシュウシ",
    "town": "水沢区町裏",
    "town_kana": "ミズサワクマチウラ",
    "street": null,
    "office_name": null,
    "office_name_kana": null
  },
  "0884": {
    "postcode": "0230884",
    "prefecture": "岩手県",
    "prefecture_kana": "イワテケン",
    "prefecture_code": 3,
    "city": "奥州市",
    "city_kana": "オウシュウシ",
    "town": "水沢区前谷地",
    "town_kana": "ミズサワクマエヤチ",
    "street": null,
    "office_name": null,
    "office_name_kana": null
  },
  "0885": {
    "postcode": "0230885",
    "prefecture": "岩手県",
    "prefecture_kana": "イワテケン",
    "prefecture_code": 3,
    "city": "奥州市",
    "city_kana": "オウシュウシ",
    "town": "水沢区西田",
    "town_kana": "ミズサワクニシダ",
    "street": null,
    "office_name": null,
    "office_name_kana": null
  },
  "0886": {
    "postcode": "0230886",
    "prefecture": "岩手県",
    "prefecture_kana": "イワテケン",
    "prefecture_code": 3,
    "city": "奥州市",
    "city_kana": "オウシュウシ",
    "town": "水沢区南矢中",
    "town_kana": "ミズサワクミナミヤナカ",
    "street": null,
    "office_name": null,
    "office_name_kana": null
  },
  "0887": {
    "postcode": "0230887",
    "prefecture": "岩手県",
    "prefecture_kana": "イワテケン",
    "prefecture_code": 3,
    "city": "奥州市",
    "city_kana": "オウシュウシ",
    "town": "水沢区矢中",
    "town_kana": "ミズサワクヤナカ",
    "street": null,
    "office_name": null,
    "office_name_kana": null
  },
  "0888": {
    "postcode": "0230888",
    "prefecture": "岩手県",
    "prefecture_kana": "イワテケン",
    "prefecture_code": 3,
    "city": "奥州市",
    "city_kana": "オウシュウシ",
    "town": "水沢区八反田",
    "town_kana": "ミズサワクハッタンダ",
    "street": null,
    "office_name": null,
    "office_name_kana": null
  },
  "0889": {
    "postcode": "0230889",
    "prefecture": "岩手県",
    "prefecture_kana": "イワテケン",
    "prefecture_code": 3,
    "city": "奥州市",
    "city_kana": "オウシュウシ",
    "town": "水沢区高屋敷",
    "town_kana": "ミズサワクタカヤシキ",
    "street": null,
    "office_name": null,
    "office_name_kana": null
  },
  "0891": {
    "postcode": "0230891",
    "prefecture": "岩手県",
    "prefecture_kana": "イワテケン",
    "prefecture_code": 3,
    "city": "奥州市",
    "city_kana": "オウシュウシ",
    "town": "水沢区内匠田",
    "town_kana": "ミズサワクタクミダ",
    "street": null,
    "office_name": null,
    "office_name_kana": null
  },
  "0892": {
    "postcode": "0230892",
    "prefecture": "岩手県",
    "prefecture_kana": "イワテケン",
    "prefecture_code": 3,
    "city": "奥州市",
    "city_kana": "オウシュウシ",
    "town": "水沢区釜田",
    "town_kana": "ミズサワクカマタ",
    "street": null,
    "office_name": null,
    "office_name_kana": null
  },
  "0893": {
    "postcode": "0230893",
    "prefecture": "岩手県",
    "prefecture_kana": "イワテケン",
    "prefecture_code": 3,
    "city": "奥州市",
    "city_kana": "オウシュウシ",
    "town": "水沢区蓬田",
    "town_kana": "ミズサワクヨモギダ",
    "street": null,
    "office_name": null,
    "office_name_kana": null
  },
  "0894": {
    "postcode": "0230894",
    "prefecture": "岩手県",
    "prefecture_kana": "イワテケン",
    "prefecture_code": 3,
    "city": "奥州市",
    "city_kana": "オウシュウシ",
    "town": "水沢区大明神",
    "town_kana": "ミズサワクダイミョウジン",
    "street": null,
    "office_name": null,
    "office_name_kana": null
  },
  "0895": {
    "postcode": "0230895",
    "prefecture": "岩手県",
    "prefecture_kana": "イワテケン",
    "prefecture_code": 3,
    "city": "奥州市",
    "city_kana": "オウシュウシ",
    "town": "水沢区足袋針",
    "town_kana": "ミズサワクタビハリ",
    "street": null,
    "office_name": null,
    "office_name_kana": null
  },
  "0896": {
    "postcode": "0230896",
    "prefecture": "岩手県",
    "prefecture_kana": "イワテケン",
    "prefecture_code": 3,
    "city": "奥州市",
    "city_kana": "オウシュウシ",
    "town": "水沢区西光田",
    "town_kana": "ミズサワクニシコウデン",
    "street": null,
    "office_name": null,
    "office_name_kana": null
  },
  "0897": {
    "postcode": "0230897",
    "prefecture": "岩手県",
    "prefecture_kana": "イワテケン",
    "prefecture_code": 3,
    "city": "奥州市",
    "city_kana": "オウシュウシ",
    "town": "水沢区桜川",
    "town_kana": "ミズサワクサクラカワ",
    "street": null,
    "office_name": null,
    "office_name_kana": null
  },
  "0898": {
    "postcode": "0230898",
    "prefecture": "岩手県",
    "prefecture_kana": "イワテケン",
    "prefecture_code": 3,
    "city": "奥州市",
    "city_kana": "オウシュウシ",
    "town": "水沢区後田",
    "town_kana": "ミズサワクウシロダ",
    "street": null,
    "office_name": null,
    "office_name_kana": null
  },
  "1101": {
    "postcode": "0231101",
    "prefecture": "岩手県",
    "prefecture_kana": "イワテケン",
    "prefecture_code": 3,
    "city": "奥州市",
    "city_kana": "オウシュウシ",
    "town": "江刺区岩谷堂",
    "town_kana": "エサシクイワヤドウ",
    "street": null,
    "office_name": null,
    "office_name_kana": null
  },
  "1102": {
    "postcode": "0231102",
    "prefecture": "岩手県",
    "prefecture_kana": "イワテケン",
    "prefecture_code": 3,
    "city": "奥州市",
    "city_kana": "オウシュウシ",
    "town": "江刺区八日町",
    "town_kana": "エサシクヨウカマチ",
    "street": null,
    "office_name": null,
    "office_name_kana": null
  },
  "1103": {
    "postcode": "0231103",
    "prefecture": "岩手県",
    "prefecture_kana": "イワテケン",
    "prefecture_code": 3,
    "city": "奥州市",
    "city_kana": "オウシュウシ",
    "town": "江刺区西大通り",
    "town_kana": "エサシクニシオオドオリ",
    "street": null,
    "office_name": null,
    "office_name_kana": null
  },
  "1104": {
    "postcode": "0231104",
    "prefecture": "岩手県",
    "prefecture_kana": "イワテケン",
    "prefecture_code": 3,
    "city": "奥州市",
    "city_kana": "オウシュウシ",
    "town": "江刺区豊田町",
    "town_kana": "エサシクトヨタチョウ",
    "street": null,
    "office_name": null,
    "office_name_kana": null
  },
  "1105": {
    "postcode": "0231105",
    "prefecture": "岩手県",
    "prefecture_kana": "イワテケン",
    "prefecture_code": 3,
    "city": "奥州市",
    "city_kana": "オウシュウシ",
    "town": "江刺区杉ノ町",
    "town_kana": "エサシクスギノマチ",
    "street": null,
    "office_name": null,
    "office_name_kana": null
  },
  "1111": {
    "postcode": "0231111",
    "prefecture": "岩手県",
    "prefecture_kana": "イワテケン",
    "prefecture_code": 3,
    "city": "奥州市",
    "city_kana": "オウシュウシ",
    "town": "江刺区大通り",
    "town_kana": "エサシクオオドオリ",
    "street": null,
    "office_name": null,
    "office_name_kana": null
  },
  "1112": {
    "postcode": "0231112",
    "prefecture": "岩手県",
    "prefecture_kana": "イワテケン",
    "prefecture_code": 3,
    "city": "奥州市",
    "city_kana": "オウシュウシ",
    "town": "江刺区南大通り",
    "town_kana": "エサシクミナミオオドオリ",
    "street": null,
    "office_name": null,
    "office_name_kana": null
  },
  "1113": {
    "postcode": "0231113",
    "prefecture": "岩手県",
    "prefecture_kana": "イワテケン",
    "prefecture_code": 3,
    "city": "奥州市",
    "city_kana": "オウシュウシ",
    "town": "江刺区中町",
    "town_kana": "エサシクナカマチ",
    "street": null,
    "office_name": null,
    "office_name_kana": null
  },
  "1114": {
    "postcode": "0231114",
    "prefecture": "岩手県",
    "prefecture_kana": "イワテケン",
    "prefecture_code": 3,
    "city": "奥州市",
    "city_kana": "オウシュウシ",
    "town": "江刺区川原町",
    "town_kana": "エサシクカワラマチ",
    "street": null,
    "office_name": null,
    "office_name_kana": null
  },
  "1115": {
    "postcode": "0231115",
    "prefecture": "岩手県",
    "prefecture_kana": "イワテケン",
    "prefecture_code": 3,
    "city": "奥州市",
    "city_kana": "オウシュウシ",
    "town": "江刺区本町",
    "town_kana": "エサシクホンチョウ",
    "street": null,
    "office_name": null,
    "office_name_kana": null
  },
  "1116": {
    "postcode": "0231116",
    "prefecture": "岩手県",
    "prefecture_kana": "イワテケン",
    "prefecture_code": 3,
    "city": "奥州市",
    "city_kana": "オウシュウシ",
    "town": "江刺区重染寺",
    "town_kana": "エサシクチョウゼンジ",
    "street": null,
    "office_name": null,
    "office_name_kana": null
  },
  "1117": {
    "postcode": "0231117",
    "prefecture": "岩手県",
    "prefecture_kana": "イワテケン",
    "prefecture_code": 3,
    "city": "奥州市",
    "city_kana": "オウシュウシ",
    "town": "江刺区南町",
    "town_kana": "エサシクミナミマチ",
    "street": null,
    "office_name": null,
    "office_name_kana": null
  },
  "1118": {
    "postcode": "0231118",
    "prefecture": "岩手県",
    "prefecture_kana": "イワテケン",
    "prefecture_code": 3,
    "city": "奥州市",
    "city_kana": "オウシュウシ",
    "town": "江刺区栄町",
    "town_kana": "エサシクサカエチョウ",
    "street": null,
    "office_name": null,
    "office_name_kana": null
  },
  "1121": {
    "postcode": "0231121",
    "prefecture": "岩手県",
    "prefecture_kana": "イワテケン",
    "prefecture_code": 3,
    "city": "奥州市",
    "city_kana": "オウシュウシ",
    "town": "江刺区男石",
    "town_kana": "エサシクオトコイシ",
    "street": null,
    "office_name": null,
    "office_name_kana": null
  },
  "1122": {
    "postcode": "0231122",
    "prefecture": "岩手県",
    "prefecture_kana": "イワテケン",
    "prefecture_code": 3,
    "city": "奥州市",
    "city_kana": "オウシュウシ",
    "town": "江刺区舘山",
    "town_kana": "エサシクタテヤマ",
    "street": null,
    "office_name": null,
    "office_name_kana": null
  },
  "1123": {
    "postcode": "0231123",
    "prefecture": "岩手県",
    "prefecture_kana": "イワテケン",
    "prefecture_code": 3,
    "city": "奥州市",
    "city_kana": "オウシュウシ",
    "town": "江刺区前田町",
    "town_kana": "エサシクマエダチョウ",
    "street": null,
    "office_name": null,
    "office_name_kana": null
  },
  "1124": {
    "postcode": "0231124",
    "prefecture": "岩手県",
    "prefecture_kana": "イワテケン",
    "prefecture_code": 3,
    "city": "奥州市",
    "city_kana": "オウシュウシ",
    "town": "江刺区六日町",
    "town_kana": "エサシクムイカマチ",
    "street": null,
    "office_name": null,
    "office_name_kana": null
  },
  "1125": {
    "postcode": "0231125",
    "prefecture": "岩手県",
    "prefecture_kana": "イワテケン",
    "prefecture_code": 3,
    "city": "奥州市",
    "city_kana": "オウシュウシ",
    "town": "江刺区銭町",
    "town_kana": "エサシクゼニマチ",
    "street": null,
    "office_name": null,
    "office_name_kana": null
  },
  "1131": {
    "postcode": "0231131",
    "prefecture": "岩手県",
    "prefecture_kana": "イワテケン",
    "prefecture_code": 3,
    "city": "奥州市",
    "city_kana": "オウシュウシ",
    "town": "江刺区愛宕",
    "town_kana": "エサシクオダキ",
    "street": null,
    "office_name": null,
    "office_name_kana": null
  },
  "1132": {
    "postcode": "0231132",
    "prefecture": "岩手県",
    "prefecture_kana": "イワテケン",
    "prefecture_code": 3,
    "city": "奥州市",
    "city_kana": "オウシュウシ",
    "town": "江刺区稲瀬",
    "town_kana": "エサシクイナセ",
    "street": null,
    "office_name": null,
    "office_name_kana": null
  },
  "1133": {
    "postcode": "0231133",
    "prefecture": "岩手県",
    "prefecture_kana": "イワテケン",
    "prefecture_code": 3,
    "city": "奥州市",
    "city_kana": "オウシュウシ",
    "town": "江刺区広瀬",
    "town_kana": "エサシクヒロセ",
    "street": null,
    "office_name": null,
    "office_name_kana": null
  },
  "1134": {
    "postcode": "0231134",
    "prefecture": "岩手県",
    "prefecture_kana": "イワテケン",
    "prefecture_code": 3,
    "city": "奥州市",
    "city_kana": "オウシュウシ",
    "town": "江刺区玉里",
    "town_kana": "エサシクタマサト",
    "street": null,
    "office_name": null,
    "office_name_kana": null
  },
  "1192": {
    "postcode": "0231192",
    "prefecture": "岩手県",
    "prefecture_kana": "イワテケン",
    "prefecture_code": 3,
    "city": "奥州市",
    "city_kana": "オウシュウシ",
    "town": "江刺区大通り",
    "town_kana": "エサシクオオドオリ",
    "street": "１−８",
    "office_name": "奥州市　江刺総合支所",
    "office_name_kana": "オウシユウシ エサシソウゴウシシヨ"
  },
  "1341": {
    "postcode": "0231341",
    "prefecture": "岩手県",
    "prefecture_kana": "イワテケン",
    "prefecture_code": 3,
    "city": "奥州市",
    "city_kana": "オウシュウシ",
    "town": "江刺区梁川",
    "town_kana": "エサシクヤナガワ",
    "street": null,
    "office_name": null,
    "office_name_kana": null
  },
  "1551": {
    "postcode": "0231551",
    "prefecture": "岩手県",
    "prefecture_kana": "イワテケン",
    "prefecture_code": 3,
    "city": "奥州市",
    "city_kana": "オウシュウシ",
    "town": "江刺区米里",
    "town_kana": "エサシクヨネサト",
    "street": null,
    "office_name": null,
    "office_name_kana": null
  },
  "1761": {
    "postcode": "0231761",
    "prefecture": "岩手県",
    "prefecture_kana": "イワテケン",
    "prefecture_code": 3,
    "city": "奥州市",
    "city_kana": "オウシュウシ",
    "town": "江刺区伊手",
    "town_kana": "エサシクイデ",
    "street": null,
    "office_name": null,
    "office_name_kana": null
  },
  "1762": {
    "postcode": "0231762",
    "prefecture": "岩手県",
    "prefecture_kana": "イワテケン",
    "prefecture_code": 3,
    "city": "奥州市",
    "city_kana": "オウシュウシ",
    "town": "江刺区藤里",
    "town_kana": "エサシクフジサト",
    "street": null,
    "office_name": null,
    "office_name_kana": null
  },
  "8501": {
    "postcode": "0238501",
    "prefecture": "岩手県",
    "prefecture_kana": "イワテケン",
    "prefecture_code": 3,
    "city": "奥州市",
    "city_kana": "オウシュウシ",
    "town": "水沢区大手町",
    "town_kana": "ミズサワクオオテマチ",
    "street": "１丁目１",
    "office_name": "奥州市役所",
    "office_name_kana": "オウシユウシヤクシヨ"
  }
}